[{"OBJECT_NAME":"OBJECT L","OBJECT_ID":"2023-085L","EPOCH":"2026-03-09T23:02:21.999840","MEAN_MOTION":15.29079976,"ECCENTRICITY":0.0005428,"INCLINATION":97.486,"RA_OF_ASC_NODE":178.8598,"ARG_OF_PERICENTER":50.8528,"MEAN_ANOMALY":309.3193,"EPHEMERIS_TYPE":0,"CLASSIFICATION_TYPE":"U","NORAD_CAT_ID":57014,"ELEMENT_SET_NO":999,"REV_AT_EPOCH":15144,"BSTAR":0.00063462603,"MEAN_MOTION_DOT":0.00017871,"MEAN_MOTION_DDOT":0},{"OBJECT_NAME":"STARLINK-32482","OBJECT_ID":"2024-224C","EPOCH":"2026-03-09T07:21:26.324352","MEAN_MOTION":15.27584526,"ECCENTRICITY":9.793e-5,"INCLINATION":43.0011,"RA_OF_ASC_NODE":160.0831,"ARG_OF_PERICENTER":256.7047,"MEAN_ANOMALY":103.3695,"EPHEMERIS_TYPE":0,"CLASSIFICATION_TYPE":"U","NORAD_CAT_ID":62141,"ELEMENT_SET_NO":999,"REV_AT_EPOCH":7226,"BSTAR":0.00057018125,"MEAN_MOTION_DOT":0.00015463,"MEAN_MOTION_DDOT":0}]
